IRIDIUM 155             
1 43573U 18061E   19201.58377490  .00000004  00000-0 -54611-5 0  9991
2 43573  86.3955  31.3400 0001775  66.2730 293.8652 14.34218304 51657
IRIDIUM 154             
1 43574U 18061F   19201.56474310 -.00000022  00000-0 -14847-4 0  9996
2 43574  86.3958  31.3622 0002422  88.8797 271.2676 14.34217521 51690
IRIDIUM 163             
1 43575U 18061G   19201.54573612 -.00000010  00000-0 -10583-4 0  9990
2 43575  86.3955  31.3618 0001947 106.9340 253.2069 14.34218693 51664
IRIDIUM 156             
1 43576U 18061H   19201.52033773 -.00000009  00000-0 -10218-4 0  9991
2 43576  86.3956  31.3768 0001668  88.4331 271.7056 14.34219133 51645
IRIDIUM 164             
1 43577U 18061J   19201.57108807 -.00000001  00000-0 -75537-5 0  9996
2 43577  86.3957  31.3577 0002253  90.9854 269.1600 14.34218597 51700
IRIDIUM 159             
1 43578U 18061K   19201.53937015 -.00000007  00000-0 -95417-5 0  9999
2 43578  86.3955  31.3607 0002263  88.4457 271.6998 14.34218978 51661
IRIDIUM 180             
1 43922U 19002A   19201.46911001  .00000063  00000-0  15526-4 0  9999
2 43922  86.3989 328.2210 0003369 108.6182 251.5380 14.34217948 27309
IRIDIUM 176             
1 43923U 19002B   19201.44987927  .00000102  00000-0  12321-4 0  9992
2 43923  86.6123 328.2463 0002253  98.4971 261.6502 14.72244940 27937
IRIDIUM 168             
1 43924U 19002C   19201.53253869  .00000061  00000-0  14655-4 0  9990
2 43924  86.3991 328.2003 0002605  96.7386 263.4106 14.34216503 27257
IRIDIUM 173             
1 43925U 19002D   19201.45007680  .00000059  00000-0  14101-4 0  9993
2 43925  86.3988 328.2262 0002409  96.2735 263.8735 14.34218404 27238
IRIDIUM 169             
1 43926U 19002E   19201.49087231  .00000065  00000-0  14976-4 0  9995
2 43926  87.4051 347.1241 0003530  41.7838 318.3631 14.38623256 27391
IRIDIUM 172             
1 43927U 19002F   19201.44375555  .00000064  00000-0  15802-4 0  9998
2 43927  86.3987 328.2287 0002560  98.7848 261.3638 14.34217743 27236
IRIDIUM 175             
1 43928U 19002G   19201.44369277  .00000028  00000-0  48647-6 0  9998
2 43928  86.6107 328.2064 0002246  67.4514 292.6941 14.72244947 27929
IRIDIUM 171             
1 43929U 19002H   19201.56424580  .00000057  00000-0  13222-4 0  9992
2 43929  86.3998 328.2043 0002536  96.1194 264.0291 14.34216250 27247
IRIDIUM 170             
1 43930U 19002J   19201.45604720  .00000112  00000-0  13837-4 0  9992
2 43930  86.6123 328.2513 0002042  90.9042 269.2409 14.72244852 27946
IRIDIUM 167             
1 43931U 19002K   19201.55790373  .00000056  00000-0  13105-4 0  9999
2 43931  86.3989 328.1814 0003300 105.3522 254.8039 14.34217831 27246
